ORBCOMM FM103 [+]       
1 40091U 14040F   23258.07152764  .00000947  00000+0  25136-3 0  9994
2 40091  47.0057 159.7236 0002131 235.5601 124.5083 14.55876660487674
ORBCOMM FM114 [+]       
1 41179U 15081A   23257.90152807  .00001098  00000+0  28544-3 0  9991
2 41179  47.0029  69.8924 0002027 270.0873  89.9780 14.55898224411007
ORBCOMM FM119 [-]       
1 41180U 15081B   23257.59364200  .00001046  00000+0  27375-3 0  9994
2 41180  47.0026 340.5351 0001654 317.5864  42.4892 14.55872808412167
ORBCOMM FM105 [-]       
1 41181U 15081C   23258.06894496  .00000342  00000+0  14487-3 0  9991
2 41181  47.0013 283.7071 0002488 309.1747  50.8912 14.44003065408164
ORBCOMM FM110 [+]       
1 41182U 15081D   23257.80978649  .00001000  00000+0  26338-3 0  9996
2 41182  47.0020  69.7523 0001652 132.9202 227.1822 14.55887558410810
ORBCOMM FM118 [+]       
1 41183U 15081E   23257.85589721  .00000997  00000+0  26268-3 0  9997
2 41183  47.0041  69.7958 0001851 127.3560 232.7493 14.55895224410929
ORBCOMM FM113 [+]       
1 41185U 15081G   23257.27368701  .00001460  00000+0  36702-3 0  9998
2 41185  47.0029 341.5222 0001440 301.6458  58.4286 14.55890656412041
